[{"OBJECT_NAME":"JILIN-1 KUANFU 01","OBJECT_ID":"2020-003A","EPOCH":"2026-03-09T21:54:33.175008","MEAN_MOTION":15.10079256,"ECCENTRICITY":0.00082994,"INCLINATION":97.5094,"RA_OF_ASC_NODE":144.8213,"ARG_OF_PERICENTER":285.3859,"MEAN_ANOMALY":74.6453,"EPHEMERIS_TYPE":0,"CLASSIFICATION_TYPE":"U","NORAD_CAT_ID":45016,"ELEMENT_SET_NO":999,"REV_AT_EPOCH":34034,"BSTAR":0.00024799476,"MEAN_MOTION_DOT":3.977e-5,"MEAN_MOTION_DDOT":0},{"OBJECT_NAME":"STARLINK-6257","OBJECT_ID":"2023-088AS","EPOCH":"2026-03-09T22:00:01.999584","MEAN_MOTION":15.08879236,"ECCENTRICITY":0.00021662,"INCLINATION":43.0006,"RA_OF_ASC_NODE":93.1585,"ARG_OF_PERICENTER":279.6136,"MEAN_ANOMALY":118.0848,"EPHEMERIS_TYPE":0,"CLASSIFICATION_TYPE":"U","NORAD_CAT_ID":57088,"ELEMENT_SET_NO":999,"REV_AT_EPOCH":577,"BSTAR":0.0036044706,"MEAN_MOTION_DOT":0.00058033,"MEAN_MOTION_DDOT":0}]
